[{"OBJECT_NAME":"STARLINK-37118","OBJECT_ID":"2026-057F","EPOCH":"2026-03-27T06:00:02.999808","MEAN_MOTION":16.05171637,"ECCENTRICITY":0.00013289,"INCLINATION":97.2818,"RA_OF_ASC_NODE":209.2239,"ARG_OF_PERICENTER":50.234,"MEAN_ANOMALY":47.0043,"EPHEMERIS_TYPE":0,"CLASSIFICATION_TYPE":"U","NORAD_CAT_ID":68299,"ELEMENT_SET_NO":999,"REV_AT_EPOCH":197,"BSTAR":-0.0012772412,"MEAN_MOTION_DOT":-0.00873963,"MEAN_MOTION_DDOT":0.00027129217},{"OBJECT_NAME":"STARLINK-36875","OBJECT_ID":"2026-057G","EPOCH":"2026-03-27T06:00:02.999808","MEAN_MOTION":16.05066047,"ECCENTRICITY":0.00013054,"INCLINATION":97.2819,"RA_OF_ASC_NODE":209.223,"ARG_OF_PERICENTER":50.2189,"MEAN_ANOMALY":45.3856,"EPHEMERIS_TYPE":0,"CLASSIFICATION_TYPE":"U","NORAD_CAT_ID":68300,"ELEMENT_SET_NO":999,"REV_AT_EPOCH":203,"BSTAR":-0.0012883299,"MEAN_MOTION_DOT":-0.00875921,"MEAN_MOTION_DDOT":0.00027207002},{"OBJECT_NAME":"STARLINK-37099","OBJECT_ID":"2026-057H","EPOCH":"2026-03-27T06:00:02.999808","MEAN_MOTION":16.05329906,"ECCENTRICITY":0.00014112,"INCLINATION":97.2816,"RA_OF_ASC_NODE":209.2252,"ARG_OF_PERICENTER":52.2699,"MEAN_ANOMALY":47.2887,"EPHEMERIS_TYPE":0,"CLASSIFICATION_TYPE":"U","NORAD_CAT_ID":68301,"ELEMENT_SET_NO":999,"REV_AT_EPOCH":186,"BSTAR":-0.0012678608,"MEAN_MOTION_DOT":-0.00875901,"MEAN_MOTION_DDOT":0.00027293495},{"OBJECT_NAME":"STARLINK-37007","OBJECT_ID":"2026-057J","EPOCH":"2026-03-27T06:00:02.999808","MEAN_MOTION":16.05635935,"ECCENTRICITY":0.00012751,"INCLINATION":97.2813,"RA_OF_ASC_NODE":209.227,"ARG_OF_PERICENTER":52.5434,"MEAN_ANOMALY":51.5806,"EPHEMERIS_TYPE":0,"CLASSIFICATION_TYPE":"U","NORAD_CAT_ID":68302,"ELEMENT_SET_NO":999,"REV_AT_EPOCH":208,"BSTAR":-0.0012358761,"MEAN_MOTION_DOT":-0.00869857,"MEAN_MOTION_DDOT":0.00027046608},{"OBJECT_NAME":"STARLINK-36300","OBJECT_ID":"2026-057K","EPOCH":"2026-03-27T06:00:02.999808","MEAN_MOTION":16.05499472,"ECCENTRICITY":0.00012084,"INCLINATION":97.2814,"RA_OF_ASC_NODE":209.226,"ARG_OF_PERICENTER":54.9436,"MEAN_ANOMALY":47.0786,"EPHEMERIS_TYPE":0,"CLASSIFICATION_TYPE":"U","NORAD_CAT_ID":68303,"ELEMENT_SET_NO":999,"REV_AT_EPOCH":213,"BSTAR":-0.0012537678,"MEAN_MOTION_DOT":-0.00875103,"MEAN_MOTION_DDOT":0.00027304031},{"OBJECT_NAME":"STARLINK-36849","OBJECT_ID":"2026-057L","EPOCH":"2026-03-27T06:00:02.999808","MEAN_MOTION":16.05743699,"ECCENTRICITY":0.00013336,"INCLINATION":97.2815,"RA_OF_ASC_NODE":209.2277,"ARG_OF_PERICENTER":54.3378,"MEAN_ANOMALY":51.4002,"EPHEMERIS_TYPE":0,"CLASSIFICATION_TYPE":"U","NORAD_CAT_ID":68304,"ELEMENT_SET_NO":999,"REV_AT_EPOCH":203,"BSTAR":-0.0012233373,"MEAN_MOTION_DOT":-0.00866738,"MEAN_MOTION_DDOT":0.00026902673},{"OBJECT_NAME":"STARLINK-36277","OBJECT_ID":"2026-057M","EPOCH":"2026-03-27T06:00:02.999808","MEAN_MOTION":16.06003783,"ECCENTRICITY":0.00012552,"INCLINATION":97.2811,"RA_OF_ASC_NODE":209.2292,"ARG_OF_PERICENTER":50.7044,"MEAN_ANOMALY":58.846,"EPHEMERIS_TYPE":0,"CLASSIFICATION_TYPE":"U","NORAD_CAT_ID":68305,"ELEMENT_SET_NO":999,"REV_AT_EPOCH":219,"BSTAR":-0.0011894456,"MEAN_MOTION_DOT":-0.00856291,"MEAN_MOTION_DDOT":0.00026389131},{"OBJECT_NAME":"STARLINK-36307","OBJECT_ID":"2026-057N","EPOCH":"2026-03-27T06:00:02.999808","MEAN_MOTION":16.05853229,"ECCENTRICITY":0.00012811,"INCLINATION":97.2814,"RA_OF_ASC_NODE":209.2288,"ARG_OF_PERICENTER":56.5394,"MEAN_ANOMALY":50.7809,"EPHEMERIS_TYPE":0,"CLASSIFICATION_TYPE":"U","NORAD_CAT_ID":68306,"ELEMENT_SET_NO":999,"REV_AT_EPOCH":213,"BSTAR":-0.0012194049,"MEAN_MOTION_DOT":-0.00869716,"MEAN_MOTION_DDOT":0.00027110828},{"OBJECT_NAME":"STARLINK-36264","OBJECT_ID":"2026-057P","EPOCH":"2026-03-27T06:00:02.999808","MEAN_MOTION":16.06175129,"ECCENTRICITY":0.00012799,"INCLINATION":97.2812,"RA_OF_ASC_NODE":209.2303,"ARG_OF_PERICENTER":53.1259,"MEAN_ANOMALY":58.8173,"EPHEMERIS_TYPE":0,"CLASSIFICATION_TYPE":"U","NORAD_CAT_ID":68307,"ELEMENT_SET_NO":999,"REV_AT_EPOCH":219,"BSTAR":-0.0011839776,"MEAN_MOTION_DOT":-0.00861317,"MEAN_MOTION_DDOT":0.00026733693},{"OBJECT_NAME":"STARLINK-37138","OBJECT_ID":"2026-057Q","EPOCH":"2026-03-27T06:00:02.999808","MEAN_MOTION":16.06260469,"ECCENTRICITY":0.00013581,"INCLINATION":97.2806,"RA_OF_ASC_NODE":209.2306,"ARG_OF_PERICENTER":51.7,"MEAN_ANOMALY":61.6162,"EPHEMERIS_TYPE":0,"CLASSIFICATION_TYPE":"U","NORAD_CAT_ID":68308,"ELEMENT_SET_NO":999,"REV_AT_EPOCH":186,"BSTAR":-0.001174728,"MEAN_MOTION_DOT":-0.00859106,"MEAN_MOTION_DDOT":0.00026634739},{"OBJECT_NAME":"STARLINK-37149","OBJECT_ID":"2026-057R","EPOCH":"2026-03-27T06:00:02.999808","MEAN_MOTION":16.06379069,"ECCENTRICITY":0.00012996,"INCLINATION":97.2805,"RA_OF_ASC_NODE":209.2309,"ARG_OF_PERICENTER":52.4527,"MEAN_ANOMALY":62.6447,"EPHEMERIS_TYPE":0,"CLASSIFICATION_TYPE":"U","NORAD_CAT_ID":68309,"ELEMENT_SET_NO":999,"REV_AT_EPOCH":197,"BSTAR":-0.0011609473,"MEAN_MOTION_DOT":-0.00855261,"MEAN_MOTION_DDOT":0.00026453084},{"OBJECT_NAME":"STARLINK-37148","OBJECT_ID":"2026-057S","EPOCH":"2026-03-27T06:00:02.999808","MEAN_MOTION":16.06639875,"ECCENTRICITY":0.00012908,"INCLINATION":97.2805,"RA_OF_ASC_NODE":209.2328,"ARG_OF_PERICENTER":53.9468,"MEAN_ANOMALY":64.8618,"EPHEMERIS_TYPE":0,"CLASSIFICATION_TYPE":"U","NORAD_CAT_ID":68310,"ELEMENT_SET_NO":999,"REV_AT_EPOCH":208,"BSTAR":-0.0011408503,"MEAN_MOTION_DOT":-0.00854084,"MEAN_MOTION_DDOT":0.00026471499},{"OBJECT_NAME":"STARLINK-37140","OBJECT_ID":"2026-057T","EPOCH":"2026-03-27T06:00:02.999808","MEAN_MOTION":16.06520473,"ECCENTRICITY":0.00014258,"INCLINATION":97.2806,"RA_OF_ASC_NODE":209.2323,"ARG_OF_PERICENTER":50.817,"MEAN_ANOMALY":66.2487,"EPHEMERIS_TYPE":0,"CLASSIFICATION_TYPE":"U","NORAD_CAT_ID":68311,"ELEMENT_SET_NO":999,"REV_AT_EPOCH":224,"BSTAR":-0.0011514403,"MEAN_MOTION_DOT":-0.00855694,"MEAN_MOTION_DDOT":0.0002652459},{"OBJECT_NAME":"STARLINK-36854","OBJECT_ID":"2026-057U","EPOCH":"2026-03-27T06:00:02.999808","MEAN_MOTION":16.06751059,"ECCENTRICITY":0.00013509,"INCLINATION":97.2806,"RA_OF_ASC_NODE":209.2338,"ARG_OF_PERICENTER":52.7214,"MEAN_ANOMALY":67.773,"EPHEMERIS_TYPE":0,"CLASSIFICATION_TYPE":"U","NORAD_CAT_ID":68312,"ELEMENT_SET_NO":999,"REV_AT_EPOCH":203,"BSTAR":-0.0011238809,"MEAN_MOTION_DOT":-0.00847242,"MEAN_MOTION_DDOT":0.0002611597},{"OBJECT_NAME":"STARLINK-36815","OBJECT_ID":"2026-057V","EPOCH":"2026-03-27T06:00:02.999808","MEAN_MOTION":16.06895958,"ECCENTRICITY":0.00013844,"INCLINATION":97.2806,"RA_OF_ASC_NODE":209.2348,"ARG_OF_PERICENTER":52.0213,"MEAN_ANOMALY":70.5119,"EPHEMERIS_TYPE":0,"CLASSIFICATION_TYPE":"U","NORAD_CAT_ID":68313,"ELEMENT_SET_NO":999,"REV_AT_EPOCH":203,"BSTAR":-0.0011109509,"MEAN_MOTION_DOT":-0.00845063,"MEAN_MOTION_DDOT":0.00026038838},{"OBJECT_NAME":"STARLINK-37155","OBJECT_ID":"2026-057W","EPOCH":"2026-03-27T06:00:02.999808","MEAN_MOTION":16.07197479,"ECCENTRICITY":0.00013601,"INCLINATION":97.2803,"RA_OF_ASC_NODE":209.2365,"ARG_OF_PERICENTER":49.1132,"MEAN_ANOMALY":77.6812,"EPHEMERIS_TYPE":0,"CLASSIFICATION_TYPE":"U","NORAD_CAT_ID":68314,"ELEMENT_SET_NO":999,"REV_AT_EPOCH":208,"BSTAR":-0.0010794348,"MEAN_MOTION_DOT":-0.0083667,"MEAN_MOTION_DDOT":0.00025658473}]
